{"type": "FeatureCollection", "features": [ {"type": "Feature", "properties": {"norad_id": 40697, "name": "SENTINEL-2A", "group": "resource", "lat": -2.585440041094066, "lon": -130.89972679862936, "alt_km": 792.2461062052698, "timestamp": "2025-12-02T19:35:50.219009+00:00", "meta": {"OBJECT_NAME": "SENTINEL-2A", "OBJECT_ID": "2015-028A", "EPOCH": "2025-12-02T12:02:01.963104", "MEAN_MOTION": 14.30820689, "ECCENTRICITY": 0.0001046, "INCLINATION": 98.5703, "RA_OF_ASC_NODE": 49.1798, "ARG_OF_PERICENTER": 93.9661, "MEAN_ANOMALY": 266.1642, "EPHEMERIS_TYPE": 0, "CLASSIFICATION_TYPE": "U", "NORAD_CAT_ID": 40697, "ELEMENT_SET_NO": 999, "REV_AT_EPOCH": 54560, "BSTAR": 0.00010264, "MEAN_MOTION_DOT": 2.25e-06, "MEAN_MOTION_DDOT": 0}, "tle": {"line1": "1 40697U 15028A   25336.50141161  .00000225  00000+0  10264-3 0  9994", "line2": "2 40697  98.5703  49.1798 0001046  93.9661 266.1642 14.30820689545601"}}, "geometry": {"type": "Point", "coordinates": [-130.89972679862936, -2.585440041094066]}}, {"type": "Feature", "properties": {"norad_id": 40701, "name": "GAOFEN-8", "group": "resource", "lat": -3.933372255657998, "lon": 155.0094280889944, "alt_km": 463.1770504150709, "timestamp": "2025-12-02T19:35:50.219019+00:00", "meta": {"OBJECT_NAME": "GAOFEN-8", "OBJECT_ID": "2015-030A", "EPOCH": "2025-12-02T13:22:07.304736", "MEAN_MOTION": 15.38010733, "ECCENTRICITY": 0.0011163, "INCLINATION": 97.6906, "RA_OF_ASC_NODE": 154.2052, "ARG_OF_PERICENTER": 174.0263, "MEAN_ANOMALY": 186.1116, "EPHEMERIS_TYPE": 0, "CLASSIFICATION_TYPE": "U", "NORAD_CAT_ID": 40701, "ELEMENT_SET_NO": 999, "REV_AT_EPOCH": 58114, "BSTAR": 0.00061638, "MEAN_MOTION_DOT": 0.0002305, "MEAN_MOTION_DDOT": 0}, "tle": {"line1": "1 40701U 15030A   25336.55702899  .00023050  00000+0  61638-3 0  9991", "line2": "2 40701  97.6906 154.2052 0011163 174.0263 186.1116 15.38010733581149"}}, "geometry": {"type": "Point", "coordinates": [155.0094280889944, -3.933372255657998]}}, {"type": "Feature", "properties": {"norad_id": 40718, "name": "CARBONITE 1 (CBNT-1)", "group": "resource", "lat": 68.34483468847952, "lon": -1.94245558284833, "alt_km": 616.743781440804, "timestamp": "2025-12-02T19:35:50.219030+00:00", "meta": {"OBJECT_NAME": "CARBONITE 1 (CBNT-1)", "OBJECT_ID": "2015-032D", "EPOCH": "2025-12-02T12:37:18.242976", "MEAN_MOTION": 14.82664906, "ECCENTRICITY": 0.0013789, "INCLINATION": 97.6401, "RA_OF_ASC_NODE": 158.02, "ARG_OF_PERICENTER": 216.0725, "MEAN_ANOMALY": 143.956, "EPHEMERIS_TYPE": 0, "CLASSIFICATION_TYPE": "U", "NORAD_CAT_ID": 40718, "ELEMENT_SET_NO": 999, "REV_AT_EPOCH": 56019, "BSTAR": 0.00043691, "MEAN_MOTION_DOT": 3.478e-05, "MEAN_MOTION_DDOT": 0}, "tle": {"line1": "1 40718U 15032D   25336.52590559  .00003478  00000+0  43691-3 0  9997", "line2": "2 40718  97.6401 158.0200 0013789 216.0725 143.9560 14.82664906560191"}}, "geometry": {"type": "Point", "coordinates": [-1.94245558284833, 68.34483468847952]}}, {"type": "Feature", "properties": {"norad_id": 40878, "name": "YAOGAN-27", "group": "resource", "lat": -7.677004746458011, "lon": -31.737605304852227, "alt_km": 1199.0498311510119, "timestamp": "2025-12-02T19:35:50.219040+00:00", "meta": {"OBJECT_NAME": "YAOGAN-27", "OBJECT_ID": "2015-040A", "EPOCH": "2025-12-02T12:20:19.362336", "MEAN_MOTION": 13.16059631, "ECCENTRICITY": 0.0007756, "INCLINATION": 100.1003, "RA_OF_ASC_NODE": 326.597, "ARG_OF_PERICENTER": 311.8966, "MEAN_ANOMALY": 48.1486, "EPHEMERIS_TYPE": 0, "CLASSIFICATION_TYPE": "U", "NORAD_CAT_ID": 40878, "ELEMENT_SET_NO": 999, "REV_AT_EPOCH": 49179, "BSTAR": 5.539e-05, "MEAN_MOTION_DOT": -2.1e-07, "MEAN_MOTION_DDOT": 0}, "tle": {"line1": "1 40878U 15040A   25336.51411299 -.00000021  00000+0  55390-4 0  9997", "line2": "2 40878 100.1003 326.5970 0007756 311.8966  48.1486 13.16059631491791"}}, "geometry": {"type": "Point", "coordinates": [-31.737605304852227, -7.677004746458011]}}, {"type": "Feature", "properties": {"norad_id": 40894, "name": "GAOFEN-9 01", "group": "resource", "lat": 41.42476244810164, "lon": 9.38382612944116, "alt_km": 599.9215784730131, "timestamp": "2025-12-02T19:35:50.219050+00:00", "meta": {"OBJECT_NAME": "GAOFEN-9 01", "OBJECT_ID": "2015-047A", "EPOCH": "2025-12-02T12:55:46.934688", "MEAN_MOTION": 14.82380155, "ECCENTRICITY": 0.002897, "INCLINATION": 97.6557, "RA_OF_ASC_NODE": 15.9344, "ARG_OF_PERICENTER": 66.4188, "MEAN_ANOMALY": 294.0064, "EPHEMERIS_TYPE": 0, "CLASSIFICATION_TYPE": "U", "NORAD_CAT_ID": 40894, "ELEMENT_SET_NO": 999, "REV_AT_EPOCH": 55105, "BSTAR": 0.00020788, "MEAN_MOTION_DOT": 1.625e-05, "MEAN_MOTION_DDOT": 0}, "tle": {"line1": "1 40894U 15047A   25336.53873767  .00001625  00000+0  20788-3 0  9998", "line2": "2 40894  97.6557  15.9344 0028970  66.4188 294.0064 14.82380155551059"}}, "geometry": {"type": "Point", "coordinates": [9.38382612944116, 41.42476244810164]}}, {"type": "Feature", "properties": {"norad_id": 41026, "name": "YAOGAN-28", "group": "resource", "lat": 37.545107118901896, "lon": -59.47077535604432, "alt_km": 483.1011459047986, "timestamp": "2025-12-02T19:35:50.219060+00:00", "meta": {"OBJECT_NAME": "YAOGAN-28", "OBJECT_ID": "2015-064A", "EPOCH": "2025-12-02T12:40:24.039264", "MEAN_MOTION": 15.2407305, "ECCENTRICITY": 0.001187, "INCLINATION": 97.2795, "RA_OF_ASC_NODE": 114.6109, "ARG_OF_PERICENTER": 160.0739, "MEAN_ANOMALY": 200.0964, "EPHEMERIS_TYPE": 0, "CLASSIFICATION_TYPE": "U", "NORAD_CAT_ID": 41026, "ELEMENT_SET_NO": 999, "REV_AT_EPOCH": 56069, "BSTAR": 0.00051149, "MEAN_MOTION_DOT": 0.0001238, "MEAN_MOTION_DDOT": 0}, "tle": {"line1": "1 41026U 15064A   25336.52805601  .00012380  00000+0  51149-3 0  9991", "line2": "2 41026  97.2795 114.6109 0011870 160.0739 200.0964 15.24073050560693"}}, "geometry": {"type": "Point", "coordinates": [-59.47077535604432, 37.545107118901896]}}, {"type": "Feature", "properties": {"norad_id": 41038, "name": "YAOGAN-29", "group": "resource", "lat": -81.50434114573144, "lon": 70.7311919649046, "alt_km": 627.7135457645591, "timestamp": "2025-12-02T19:35:50.219071+00:00", "meta": {"OBJECT_NAME": "YAOGAN-29", "OBJECT_ID": "2015-069A", "EPOCH": "2025-12-02T13:30:43.888608", "MEAN_MOTION": 14.82864223, "ECCENTRICITY": 8.28e-05, "INCLINATION": 98.0229, "RA_OF_ASC_NODE": 359.7016, "ARG_OF_PERICENTER": 10.1037, "MEAN_ANOMALY": 350.0193, "EPHEMERIS_TYPE": 0, "CLASSIFICATION_TYPE": "U", "NORAD_CAT_ID": 41038, "ELEMENT_SET_NO": 999, "REV_AT_EPOCH": 54148, "BSTAR": 9.2829e-05, "MEAN_MOTION_DOT": 6.98e-06, "MEAN_MOTION_DDOT": 0}, "tle": {"line1": "1 41038U 15069A   25336.56300797  .00000698  00000+0  92829-4 0  9999", "line2": "2 41038  98.0229 359.7016 0000828  10.1037 350.0193 14.82864223541482"}}, "geometry": {"type": "Point", "coordinates": [70.7311919649046, -81.50434114573144]}}, {"type": "Feature", "properties": {"norad_id": 41167, "name": "KENT RIDGE 1", "group": "resource", "lat": 9.770018733821228, "lon": -35.14294847078017, "alt_km": 493.39007519947336, "timestamp": "2025-12-02T19:35:50.219081+00:00", "meta": {"OBJECT_NAME": "KENT RIDGE 1", "OBJECT_ID": "2015-077B", "EPOCH": "2025-12-02T05:15:28.609632", "MEAN_MOTION": 15.21503241, "ECCENTRICITY": 0.0008704, "INCLINATION": 14.9806, "RA_OF_ASC_NODE": 289.1971, "ARG_OF_PERICENTER": 341.7782, "MEAN_ANOMALY": 18.2228, "EPHEMERIS_TYPE": 0, "CLASSIFICATION_TYPE": "U", "NORAD_CAT_ID": 41167, "ELEMENT_SET_NO": 999, "REV_AT_EPOCH": 55103, "BSTAR": 0.00021780995, "MEAN_MOTION_DOT": 5.81e-05, "MEAN_MOTION_DDOT": 0}, "tle": {"line1": "1 41167U 15077B   25336.21908113  .00005810  00000+0  21781-3 0  9998", "line2": "2 41167  14.9806 289.1971 0008704 341.7782  18.2228 15.21503241551038"}}, "geometry": {"type": "Point", "coordinates": [-35.14294847078017, 9.770018733821228]}}, {"type": "Feature", "properties": {"norad_id": 41194, "name": "GAOFEN-4", "group": "resource", "lat": 0.08369824501904062, "lon": 111.47612782231576, "alt_km": 35784.37395629706, "timestamp": "2025-12-02T19:35:50.219093+00:00", "meta": {"OBJECT_NAME": "GAOFEN-4", "OBJECT_ID": "2015-083A", "EPOCH": "2025-12-02T12:34:31.975680", "MEAN_MOTION": 1.00266749, "ECCENTRICITY": 0.0003443, "INCLINATION": 0.1422, "RA_OF_ASC_NODE": 80.5276, "ARG_OF_PERICENTER": 108.1019, "MEAN_ANOMALY": 177.3034, "EPHEMERIS_TYPE": 0, "CLASSIFICATION_TYPE": "U", "NORAD_CAT_ID": 41194, "ELEMENT_SET_NO": 999, "REV_AT_EPOCH": 3655, "BSTAR": 0, "MEAN_MOTION_DOT": -3.14e-06, "MEAN_MOTION_DDOT": 0}, "tle": {"line1": "1 41194U 15083A   25336.52398120 -.00000314  00000+0  00000+0 0  9992", "line2": "2 41194   0.1422  80.5276 0003443 108.1019 177.3034  1.00266749 36551"}}, "geometry": {"type": "Point", "coordinates": [111.47612782231576, 0.08369824501904062]}}, {"type": "Feature", "properties": {"norad_id": 41240, "name": "JASON-3", "group": "resource", "lat": 33.81525333942147, "lon": -163.98471639771282, "alt_km": 1311.1706083914905, "timestamp": "2025-12-02T19:35:50.219104+00:00", "meta": {"OBJECT_NAME": "JASON-3", "OBJECT_ID": "2016-002A", "EPOCH": "2025-12-02T11:56:48.212736", "MEAN_MOTION": 12.8762595, "ECCENTRICITY": 0.0007148, "INCLINATION": 66.0392, "RA_OF_ASC_NODE": 179.3572, "ARG_OF_PERICENTER": 270.2646, "MEAN_ANOMALY": 89.7554, "EPHEMERIS_TYPE": 0, "CLASSIFICATION_TYPE": "U", "NORAD_CAT_ID": 41240, "ELEMENT_SET_NO": 999, "REV_AT_EPOCH": 46192, "BSTAR": 0.00023237, "MEAN_MOTION_DOT": -3e-08, "MEAN_MOTION_DDOT": 0}, "tle": {"line1": "1 41240U 16002A   25336.49778024 -.00000003  00000+0  23237-3 0  9993", "line2": "2 41240  66.0392 179.3572 0007148 270.2646  89.7554 12.87625950461925"}}, "geometry": {"type": "Point", "coordinates": [-163.98471639771282, 33.81525333942147]}}]}